HTV-X1                  
1 66174U 25241A   26088.14865203  .00002786  00000+0  99263-4 0  9996
2 66174  51.6384 339.2964 0007280 246.5234 113.4983 15.32434802 23929
SZ-21 MODULE            
1 66515U 25246C   26088.03780880  .00044105  00000+0  35621-3 0  9993
2 66515  41.4742  84.1231 0001715 213.3550 146.7184 15.70036431 21115
SHENZHOU-22             
1 66645U 25272A   26087.97092897  .00015046  00000+0  17362-3 0  9996
2 66645  41.4668  90.7542 0003972  51.5615 308.5580 15.61596075280856
SOYUZ-MS 28             
1 66664U 25275A   26088.13267411  .00012260  00000+0  23326-3 0  9997
2 66664  51.6344 336.2407 0006215 245.2164 114.8178 15.48624340559428
DUPLEX                  
1 66906U 98067XS  26087.97156326  .00033749  00000+0  45468-3 0  9994
2 66906  51.6302 332.9170 0002979 200.7419 159.3453 15.57505635 18136
ISS OBJECT XT           
1 66907U 98067XT  26088.02758704  .00240433  00000+0  14473-2 0  9991
2 66907  51.6243 326.5038 0006045 205.1470 154.9236 15.76429698 18222
ISS OBJECT XU           
1 66908U 98067XU  26088.02375823  .00249218  00000+0  14811-2 0  9995
2 66908  51.6247 326.4734 0006285 205.0225 155.0471 15.76691690 18228
SILVERSAT               
1 66909U 98067XV  26088.04013938  .00358553  00000+0  16517-2 0  9992
2 66909  51.6214 325.0706 0007067 211.1784 148.8799 15.82009112 18248
ISS OBJECT XW           
1 66910U 98067XW  26088.03489571  .00212904  00000+0  13710-2 0  9994
2 66910  51.6232 326.5457 0006342 202.5338 157.5384 15.74966999 18224
ISS OBJECT XX           
1 66911U 98067XX  26088.04387574  .00556003  00000+0  18090-2 0  9993
2 66911  51.6187 323.5595 0008896 215.9725 144.0682 15.88734318 18256
ISS OBJECT XY           
1 66912U 98067XY  26088.04979142  .00115852  00000+0  10294-2 0  9993
2 66912  51.6270 328.9267 0004320 201.5459 158.5356 15.67649545 18182
KNACKSAT-2              
1 67683U 98067XZ  26087.90823796  .00045826  00000+0  71242-3 0  9990
2 67683  51.6324 336.2444 0010006 255.4599 104.5282 15.53414385  7777
